STARLINK-1613
1 26165C 20057BA  21325.17778572 -.00011923  00000-0 -79913-3 0  3256
2 26165  53.0506 162.4357 0001818  78.5735 312.4255 15.06398218    10
